HIMAWARI-8              
1 40267U 14060A   24112.85534604 -.00000268  00000+0  00000+0 0  9990
2 40267   0.0331 151.4478 0000967 234.4930 273.0419  1.00274831 34879
